ORBCOMM FM33            
1 25983U 99065D   24215.60578507  .00001928  00000+0  67756-3 0  9991
2 25983  45.0297  71.5508 0008116 256.5759 103.4185 14.38032480290171
ORBCOMM FM36            
1 25984U 99065E   24215.55944136  .00002629  00000+0  94561-3 0  9994
2 25984  45.0384 158.6973 0001854 118.1096 241.9939 14.35949494288587
ORBCOMM FM35            
1 25985U 99065F   24215.55937970  .00001799  00000+0  66934-3 0  9993
2 25985  45.0391 161.6502 0003726 268.6852  91.3568 14.35428176288976
ORBCOMM FM34            
1 25986U 99065G   24215.53137490  .00001855  00000+0  68911-3 0  9991
2 25986  45.0387 162.3309 0002430 209.8047 150.2663 14.35409185289082
ORBCOMM FM38            
1 33060U 08031A   24215.54111778  .00003800  00000+0  54809-3 0  9991
2 33060  48.4415  30.5240 0004999 121.0376 239.1029 14.78103439867552
ORBCOMM FM41            
1 33061U 08031B   24215.54046975  .00003659  00000+0  53230-3 0  9997
2 33061  48.4450  37.3484 0004092 106.4662 283.5951 14.77823070867057
ORBCOMM FM29            
1 33062U 08031C   24215.60738006  .00003821  00000+0  55513-3 0  9995
2 33062  48.4401  45.0649 0005932 102.5161 328.5653 14.77778073866979
ORBCOMM FM39            
1 33063U 08031D   24215.61855784  .00003337  00000+0  50071-3 0  9996
2 33063  48.4413  66.1884 0006866  74.1526 286.0144 14.76705421866669
